NORAD_CAT_ID,OBJECT_NAME,OBJECT_TYPE,EPOCH,MEAN_MOTION,ECCENTRICITY,INCLINATION,RA_OF_ASC_NODE,ARG_OF_PERICENTER,MEAN_ANOMALY,BSTAR,MEAN_MOTION_DOT,MEAN_MOTION_DDOT,TLE_LINE0,TLE_LINE1,TLE_LINE2,SEMIMAJOR_AXIS,PERIOD,APOGEE,PERIGEE,DECAYED
54192.0,STARLINK-5268,PAYLOAD,2022-11-24 06:00:02,15.73237558,0.0003579,53.2178,9.236,3.1978,113.6095,-0.00085751,-0.00119519,0.0,0 STARLINK-5268,1 54192U 22141AM  22328.25002315 -.00119519  00000-0 -85751-3 0  9993,2 54192  53.2178   9.2360 0003579   3.1978 113.6095 15.73237558  4545,6727.788000000001,91.531,352.061,347.245,0.0
54192.0,STARLINK-5268,PAYLOAD,2022-11-24 14:00:01,15.731125099999998,0.0003829,53.2174,7.587999999999999,0.7072,204.9673,0.00063344,0.00088915,0.0,0 STARLINK-5268,1 54192U 22141AM  22328.58334491  .00088915  00000-0  63344-3 0  9999,2 54192  53.2174   7.5880 0003829   0.7072 204.9673 15.73112510  1302,6728.145,91.538,352.586,347.43300000000005,0.0
54192.0,STARLINK-5268,PAYLOAD,2022-11-24 22:00:00,15.73150661,0.0003626,53.2176,5.9365,2.1866,292.3596,0.00052764,0.00073946,0.0,0 STARLINK-5268,1 54192U 22141AM  22328.91667824  .00073946  00000-0  52764-3 0  9997,2 54192  53.2176   5.9365 0003626   2.1866 292.3596 15.73150661  4640,6728.036,91.536,352.34,347.461,0.0
54192.0,STARLINK-5268,PAYLOAD,2022-11-25 14:00:01,15.73219578,0.0003975,53.2175,2.6393,4.8177,107.5825,0.00065551,0.00092501,0.0,0 STARLINK-5268,1 54192U 22141AM  22329.58334491  .00092501  00000-0  65551-3 0  9998,2 54192  53.2175   2.6393 0003975   4.8177 107.5825 15.73219578  1300,6727.839,91.532,352.379,347.03,0.0
54192.0,STARLINK-5268,PAYLOAD,2022-11-25 20:00:01,15.73295853,0.0003788,53.2176,1.4004,3.6095,85.5246,-0.0004107,-0.00058129,0.0,0 STARLINK-5268,1 54192U 22141AM  22329.83334491 -.00058129  00000-0 -41070-3 0  9996,2 54192  53.2176   1.4004 0003788   3.6095  85.5246 15.73295853  4793,6727.621999999999,91.528,352.035,346.93800000000016,0.0
54192.0,STARLINK-5268,PAYLOAD,2022-11-25 22:00:00,15.7327396,0.0003751,53.2175,0.9876,3.1503,198.2526,-5.4117e-05,-8.240000000000001e-05,0.0,0 STARLINK-5268,1 54192U 22141AM  22329.91667824 -.00008240  00000-0 -54117-4 0  9990,2 54192  53.2175   0.9876 0003751   3.1503 198.2526 15.73273960  1304,6727.684,91.529,352.0730000000001,347.026,0.0
54192.0,STARLINK-5268,PAYLOAD,2022-11-26 06:00:00,15.73288223,0.0003812,53.2173,359.3389,2.2894,288.1208,-0.00060047,-0.00084413,0.0,0 STARLINK-5268,1 54192U 22141AM  22330.25001157 -.00084413  00000-0 -60047-3 0  9994,2 54192  53.2173 359.3389 0003812   2.2894 288.1208 15.73288223  4850,6727.644,91.528,352.0730000000001,346.944,0.0
54192.0,STARLINK-5268,PAYLOAD,2022-11-26 14:00:01,15.73247228,0.0004096,53.2168,357.6903,1.7246,17.6729,-7.6842e-05,-0.00011422,0.0,0 STARLINK-5268,1 54192U 22141AM  22330.58334491 -.00011422  00000-0 -76842-4 0  9991,2 54192  53.2168 357.6903 0004096   1.7246  17.6729 15.73247228  1307,6727.761,91.53,352.381,346.87,0.0
54192.0,STARLINK-5268,PAYLOAD,2022-11-26 22:00:00,15.73205137,0.000381,53.2172,356.0386,3.9715,104.417,-0.00028713,-0.00040753,0.0,0 STARLINK-5268,1 54192U 22141AM  22330.91667824 -.00040753  00000-0 -28713-3 0  9999,2 54192  53.2172 356.0386 0003810   3.9715 104.4170 15.73205137  4961,6727.880999999999,91.533,352.309,347.182,0.0
54192.0,STARLINK-5268,PAYLOAD,2022-11-27 14:00:01,15.731484900000002,0.0004196,53.2173,352.7414,7.8277,278.365,0.00048321,0.00067617,0.0,0 STARLINK-5268,1 54192U 22141AM  22331.58334491  .00067617  00000-0  48321-3 0  9997,2 54192  53.2173 352.7414 0004196   7.8277 278.3650 15.73148490  5065,6728.042,91.536,352.73,347.084,0.0
54192.0,STARLINK-5268,PAYLOAD,2022-11-27 22:00:00,15.73193225,0.0003956,53.2173,351.0901,8.5001,6.5929,0.00014711,0.00020073,0.0,0 STARLINK-5268,1 54192U 22141AM  22331.91667824  .00020073  00000-0  14711-3 0  9994,2 54192  53.2173 351.0901 0003956   8.5001   6.5929 15.73193225  1303,6727.9140000000025,91.534,352.441,347.11800000000005,0.0
54192.0,STARLINK-5268,PAYLOAD,2022-11-28 06:00:00,15.73203182,0.0004073,53.2171,349.44199999999995,7.6352,96.3906,-0.00023012,-0.00032815,0.0,0 STARLINK-5268,1 54192U 22141AM  22332.25001157 -.00032815  00000-0 -23012-3 0  9996,2 54192  53.2171 349.4420 0004073   7.6352  96.3906 15.73203182  5173,6727.886,91.533,352.491,347.011,0.0
54192.0,STARLINK-5268,PAYLOAD,2022-11-28 22:00:01,15.73153511,0.0003956,53.2169,346.1416,6.2864,275.6332,0.0007187,0.00101297,0.0,0 STARLINK-5268,1 54192U 22141AM  22332.91668981  .00101297  00000-0  71870-3 0  9997,2 54192  53.2169 346.1416 0003956   6.2864 275.6332 15.73153511  5277,6728.028,91.536,352.55400000000014,347.231,0.0
54192.0,STARLINK-5268,PAYLOAD,2022-11-29 14:00:01,15.73217622,0.0004252,53.2171,342.8445,2.7304,97.0755,-0.00060753,-0.00085145,0.0,0 STARLINK-5268,1 54192U 22141AM  22333.58335648 -.00085145  00000-0 -60753-3 0  9995,2 54192  53.2171 342.8445 0004252   2.7304  97.0755 15.73217622  5386,6727.845,91.532,352.571,346.849,0.0
54192.0,STARLINK-5268,PAYLOAD,2022-11-29 22:00:00,15.73133381,0.0004017,53.217,341.1933,2.1518,186.5081,0.0006928,0.00097496,0.0,0 STARLINK-5268,1 54192U 22141AM  22333.91667824  .00097496  00000-0  69280-3 0  9990,2 54192  53.2170 341.1933 0004017   2.1518 186.5081 15.73133381  5430,6728.085,91.537,352.653,347.247,0.0
54192.0,STARLINK-5268,PAYLOAD,2022-11-30 14:00:01,15.73216173,0.0004264,53.2163,337.8928,3.5513,3.0077,-0.00018835,-0.00027007,0.0,0 STARLINK-5268,1 54192U 22141AM  22334.58335648 -.00027007  00000-0 -18835-3 0  9993,2 54192  53.2163 337.8928 0004264   3.5513   3.0077 15.73216173  5543,6727.849,91.532,352.583,346.845,0.0
54192.0,STARLINK-5268,PAYLOAD,2022-11-30 22:00:00,15.73161024,0.000406,53.2168,336.2375,7.3424,88.1003,0.00037028,0.00051596,0.0,0 STARLINK-5268,1 54192U 22141AM  22334.91667824  .00051596  00000-0  37028-3 0  9997,2 54192  53.2168 336.2375 0004060   7.3424  88.1003 15.73161024  1301,6728.005999999999,91.535,352.603,347.14,0.0
54192.0,STARLINK-5268,PAYLOAD,2022-12-01 14:00:01,15.73241644,0.0004244,53.2164,332.9478,8.0259,265.2738,0.00020428,0.00028205,0.0,0 STARLINK-5268,1 54192U 22141AM  22335.58334491  .00028205  00000-0  20428-3 0  9999,2 54192  53.2164 332.9478 0004244   8.0259 265.2738 15.73241644  1302,6727.776,91.531,352.497,346.786,0.0
54192.0,STARLINK-5268,PAYLOAD,2022-12-01 20:00:01,15.73212482,0.0004059,53.2166,331.7091,5.4619,244.6554,0.00015711,0.00021502,0.0,0 STARLINK-5268,1 54192U 22141AM  22335.83335648  .00021502  00000-0  15711-3 0  9994,2 54192  53.2166 331.7091 0004059   5.4619 244.6554 15.73212482  5733,6727.86,91.532,352.455,346.994,0.0
54192.0,STARLINK-5268,PAYLOAD,2022-12-01 22:00:00,15.73218881,0.0004028,53.2164,331.2965,5.664,356.6248,3.461e-05,4.241e-05,0.0,0 STARLINK-5268,1 54192U 22141AM  22335.91667824  .00004241  00000-0  34610-4 0  9998,2 54192  53.2164 331.2965 0004028   5.6640 356.6248 15.73218881  1300,6727.840999999999,91.532,352.416,346.996,0.0
54192.0,STARLINK-5268,PAYLOAD,2022-12-02 14:00:01,15.73239686,0.0004221,53.2155,327.9992,2.8925,177.2918,-0.0004900999999999,-0.00069002,0.0,0 STARLINK-5268,1 54192U 22141AM  22336.58334491 -.00069002  00000-0 -49010-3 0  9990,2 54192  53.2155 327.9992 0004221   2.8925 177.2918 15.73239686  5853,6727.781999999997,91.531,352.487,346.807,0.0
54192.0,STARLINK-5268,PAYLOAD,2022-12-02 22:00:00,15.731656900000004,0.0003982,53.2157,326.3479,1.3786,267.7584,0.00014811,0.0002019,0.0,0 STARLINK-5268,1 54192U 22141AM  22336.91667824  .00020190  00000-0  14811-3 0  9990,2 54192  53.2157 326.3479 0003982   1.3786 267.7584 15.73165690  1303,6727.993,91.535,352.537,347.17900000000014,0.0
54192.0,STARLINK-5268,PAYLOAD,2022-12-03 06:00:00,15.73214038,0.000421,53.2157,324.7003,0.2406,357.79,-0.00053362,-0.00074939,0.0,0 STARLINK-5268,1 54192U 22141AM  22337.25001157 -.00074939  00000-0 -53362-3 0  9995,2 54192  53.2157 324.7003 0004210   0.2406 357.7900 15.73214038  5969,6727.855,91.532,352.55300000000005,346.88800000000015,0.0
54192.0,STARLINK-5268,PAYLOAD,2022-12-03 14:00:01,15.73161577,0.0004277,53.2157,323.0505,358.5038,88.4409,0.00013434,0.00018248,0.0,0 STARLINK-5268,1 54192U 22141AM  22337.58334491  .00018248  00000-0  13434-3 0  9996,2 54192  53.2157 323.0505 0004277 358.5038  88.4409 15.73161577  1306,6728.005,91.535,352.747,346.992,0.0
54192.0,STARLINK-5268,PAYLOAD,2022-12-03 22:00:00,15.73173767,0.0004045,53.2156,321.3994,0.0126,175.8237,0.0005632999999999,0.0007912,0.0,0 STARLINK-5268,1 54192U 22141AM  22337.91667824  .00079120  00000-0  56330-3 0  9990,2 54192  53.2156 321.3994 0004045   0.0126 175.8237 15.73173767  6060,6727.97,91.535,352.556,347.11400000000015,0.0
54192.0,STARLINK-5268,PAYLOAD,2022-12-04 04:00:00,15.73253519,0.0004229,53.2154,320.1638,0.0349,152.4893,-0.00061049,-0.00085682,0.0,0 STARLINK-5268,1 54192U 22141AM  22338.16667824 -.00085682  00000-0 -61049-3 0  9993,2 54192  53.2154 320.1638 0004229   0.0349 152.4893 15.73253519  6109,6727.743,91.53,352.45300000000015,346.76199999999994,0.0
54192.0,STARLINK-5268,PAYLOAD,2022-12-04 12:00:00,15.73214946,0.000427,53.2147,318.5146,358.0982,243.3787,-6.8965e-05,-0.00010304,0.0,0 STARLINK-5268,1 54192U 22141AM  22338.50001157 -.00010304  00000-0 -68965-4 0  9996,2 54192  53.2147 318.5146 0004270 358.0982 243.3787 15.73214946  6159,6727.853,91.532,352.59,346.845,0.0
54192.0,STARLINK-5268,PAYLOAD,2022-12-04 14:00:01,15.73242003,0.0004204,53.2148,318.1017,357.7572,355.9472,-0.00054044,-0.0007597,0.0,0 STARLINK-5268,1 54192U 22141AM  22338.58334491 -.00075970  00000-0 -54044-3 0  9996,2 54192  53.2148 318.1017 0004204 357.7572 355.9472 15.73242003  1309,6727.775,91.531,352.469,346.81199999999984,0.0
54192.0,STARLINK-5268,PAYLOAD,2022-12-04 22:00:00,15.73168218,0.0003882,53.2151,316.4507,358.0555,84.6021,0.00068791,0.0009694,0.0,0 STARLINK-5268,1 54192U 22141AM  22338.91667824  .00096940  00000-0  68791-3 0  9994,2 54192  53.2151 316.4507 0003882 358.0555  84.6021 15.73168218  1305,6727.986,91.535,352.463,347.23900000000015,0.0
